{"type": "FeatureCollection", "features": [ {"type": "Feature", "properties": {"norad_id": 37216, "name": "COSMO-SKYMED 4", "group": "resource", "lat": 81.43581352623606, "lon": 61.30944483510106, "alt_km": 614.1518665899857, "timestamp": "2025-12-19T04:59:47.957420+00:00", "meta": {"OBJECT_NAME": "COSMO-SKYMED 4", "OBJECT_ID": "2010-060A", "EPOCH": "2025-12-18T23:42:59.006016", "MEAN_MOTION": 14.8215136, "ECCENTRICITY": 0.00013806, "INCLINATION": 97.8799, "RA_OF_ASC_NODE": 174.2167, "ARG_OF_PERICENTER": 81.9632, "MEAN_ANOMALY": 278.1738, "EPHEMERIS_TYPE": 0, "CLASSIFICATION_TYPE": "U", "NORAD_CAT_ID": 37216, "ELEMENT_SET_NO": 999, "REV_AT_EPOCH": 81787, "BSTAR": 5.1089899e-05, "MEAN_MOTION_DOT": 3.55e-06, "MEAN_MOTION_DDOT": 0}, "tle": {"line1": "1 37216U 10060A   25352.98818294  .00000355  00000+0  51090-4 0  9993", "line2": "2 37216  97.8799 174.2167 0001380  81.9632 278.1738 14.82151360817877"}}, "geometry": {"type": "Point", "coordinates": [61.30944483510106, 81.43581352623606]}}, {"type": "Feature", "properties": {"norad_id": 37387, "name": "RESOURCESAT-2", "group": "resource", "lat": 81.17811307857261, "lon": -37.982773020515836, "alt_km": 810.6472713653748, "timestamp": "2025-12-19T04:59:47.957430+00:00", "meta": {"OBJECT_NAME": "RESOURCESAT-2", "OBJECT_ID": "2011-015A", "EPOCH": "2025-12-18T21:48:54.766944", "MEAN_MOTION": 14.21599634, "ECCENTRICITY": 0.00061458, "INCLINATION": 98.787, "RA_OF_ASC_NODE": 56.4329, "ARG_OF_PERICENTER": 26.1129, "MEAN_ANOMALY": 334.0357, "EPHEMERIS_TYPE": 0, "CLASSIFICATION_TYPE": "U", "NORAD_CAT_ID": 37387, "ELEMENT_SET_NO": 999, "REV_AT_EPOCH": 76056, "BSTAR": 7.1971438e-05, "MEAN_MOTION_DOT": 1.13e-06, "MEAN_MOTION_DDOT": 0}, "tle": {"line1": "1 37387U 11015A   25352.90896721  .00000113  00000+0  71971-4 0  9998", "line2": "2 37387  98.7870  56.4329 0006145  26.1129 334.0357 14.21599634760568"}}, "geometry": {"type": "Point", "coordinates": [-37.982773020515836, 81.17811307857261]}}, {"type": "Feature", "properties": {"norad_id": 37781, "name": "HAIYANG-2A", "group": "resource", "lat": -43.649539486968806, "lon": 165.0136160577544, "alt_km": 975.6228396476727, "timestamp": "2025-12-19T04:59:47.957441+00:00", "meta": {"OBJECT_NAME": "HAIYANG-2A", "OBJECT_ID": "2011-043A", "EPOCH": "2025-12-19T00:25:45.210432", "MEAN_MOTION": 13.7883541, "ECCENTRICITY": 0.00016293, "INCLINATION": 99.3372, "RA_OF_ASC_NODE": 353.8559, "ARG_OF_PERICENTER": 75.8508, "MEAN_ANOMALY": 284.2824, "EPHEMERIS_TYPE": 0, "CLASSIFICATION_TYPE": "U", "NORAD_CAT_ID": 37781, "ELEMENT_SET_NO": 999, "REV_AT_EPOCH": 72185, "BSTAR": -1.7805417e-05, "MEAN_MOTION_DOT": -6.2e-07, "MEAN_MOTION_DDOT": 0}, "tle": {"line1": "1 37781U 11043A   25353.01788438 -.00000062  00000+0 -17805-4 0  9996", "line2": "2 37781  99.3372 353.8559 0001629  75.8508 284.2824 13.78835410721853"}}, "geometry": {"type": "Point", "coordinates": [165.0136160577544, -43.649539486968806]}}, {"type": "Feature", "properties": {"norad_id": 37791, "name": "RASAT", "group": "resource", "lat": -70.14234127005038, "lon": -120.74663143705827, "alt_km": 688.6726058853201, "timestamp": "2025-12-19T04:59:47.957451+00:00", "meta": {"OBJECT_NAME": "RASAT", "OBJECT_ID": "2011-044D", "EPOCH": "2025-12-18T23:27:54.101664", "MEAN_MOTION": 14.67917204, "ECCENTRICITY": 0.00216382, "INCLINATION": 98.065, "RA_OF_ASC_NODE": 82.1429, "ARG_OF_PERICENTER": 46.2223, "MEAN_ANOMALY": 68.3766, "EPHEMERIS_TYPE": 0, "CLASSIFICATION_TYPE": "U", "NORAD_CAT_ID": 37791, "ELEMENT_SET_NO": 999, "REV_AT_EPOCH": 76674, "BSTAR": 6.2487344e-05, "MEAN_MOTION_DOT": 3.1e-06, "MEAN_MOTION_DDOT": 0}, "tle": {"line1": "1 37791U 11044D   25352.97770951  .00000310  00000+0  62487-4 0  9993", "line2": "2 37791  98.0650  82.1429 0021638  46.2223  68.3766 14.67917204766749"}}, "geometry": {"type": "Point", "coordinates": [-120.74663143705827, -70.14234127005038]}}, {"type": "Feature", "properties": {"norad_id": 37841, "name": "SRMSAT", "group": "resource", "lat": -19.2146058933566, "lon": -37.5350042071268, "alt_km": 859.5359159778691, "timestamp": "2025-12-19T04:59:47.957462+00:00", "meta": {"OBJECT_NAME": "SRMSAT", "OBJECT_ID": "2011-058D", "EPOCH": "2025-12-18T14:54:57.461760", "MEAN_MOTION": 14.11513433, "ECCENTRICITY": 0.00119022, "INCLINATION": 19.9722, "RA_OF_ASC_NODE": 72.3527, "ARG_OF_PERICENTER": 18.2035, "MEAN_ANOMALY": 128.7708, "EPHEMERIS_TYPE": 0, "CLASSIFICATION_TYPE": "U", "NORAD_CAT_ID": 37841, "ELEMENT_SET_NO": 999, "REV_AT_EPOCH": 73227, "BSTAR": 6.9468699e-05, "MEAN_MOTION_DOT": 3.93e-06, "MEAN_MOTION_DDOT": 0}, "tle": {"line1": "1 37841U 11058D   25352.62149840  .00000393  00000+0  69469-4 0  9991", "line2": "2 37841  19.9722  72.3527 0011902  18.2035 128.7708 14.11513433732273"}}, "geometry": {"type": "Point", "coordinates": [-37.5350042071268, -19.2146058933566]}}, {"type": "Feature", "properties": {"norad_id": 38012, "name": "PLEIADES 1A", "group": "resource", "lat": -9.672032967683705, "lon": -115.52800415313642, "alt_km": 702.3251557905523, "timestamp": "2025-12-19T04:59:47.957473+00:00", "meta": {"OBJECT_NAME": "PLEIADES 1A", "OBJECT_ID": "2011-076F", "EPOCH": "2025-12-18T23:32:59.795232", "MEAN_MOTION": 14.58566465, "ECCENTRICITY": 0.00011594, "INCLINATION": 98.1822, "RA_OF_ASC_NODE": 65.6537, "ARG_OF_PERICENTER": 73.8599, "MEAN_ANOMALY": 4.8282, "EPHEMERIS_TYPE": 0, "CLASSIFICATION_TYPE": "U", "NORAD_CAT_ID": 38012, "ELEMENT_SET_NO": 999, "REV_AT_EPOCH": 74572, "BSTAR": 5.6778616e-05, "MEAN_MOTION_DOT": 2.18e-06, "MEAN_MOTION_DDOT": 0}, "tle": {"line1": "1 38012U 11076F   25352.98124763  .00000218  00000+0  56779-4 0  9994", "line2": "2 38012  98.1822  65.6537 0001159  73.8599   4.8282 14.58566465745724"}}, "geometry": {"type": "Point", "coordinates": [-115.52800415313642, -9.672032967683705]}}, {"type": "Feature", "properties": {"norad_id": 38038, "name": "ZIYUAN 1-02C (ZY 1-02C)", "group": "resource", "lat": -20.21951230589068, "lon": 62.23524939216489, "alt_km": 774.3489238204338, "timestamp": "2025-12-19T04:59:47.957483+00:00", "meta": {"OBJECT_NAME": "ZIYUAN 1-02C (ZY 1-02C)", "OBJECT_ID": "2011-079A", "EPOCH": "2025-12-18T22:57:18.279648", "MEAN_MOTION": 14.38018518, "ECCENTRICITY": 0.00073879, "INCLINATION": 98.4332, "RA_OF_ASC_NODE": 58.8559, "ARG_OF_PERICENTER": 121.9431, "MEAN_ANOMALY": 355.3418, "EPHEMERIS_TYPE": 0, "CLASSIFICATION_TYPE": "U", "NORAD_CAT_ID": 38038, "ELEMENT_SET_NO": 999, "REV_AT_EPOCH": 73330, "BSTAR": 0.00012945234, "MEAN_MOTION_DOT": 3.49e-06, "MEAN_MOTION_DDOT": 0}, "tle": {"line1": "1 38038U 11079A   25352.95646157  .00000349  00000+0  12945-3 0  9999", "line2": "2 38038  98.4332  58.8559 0007387 121.9431 355.3418 14.38018518733303"}}, "geometry": {"type": "Point", "coordinates": [62.23524939216489, -20.21951230589068]}}, {"type": "Feature", "properties": {"norad_id": 38338, "name": "ARIRANG-3 (KOMPSAT-3)", "group": "resource", "lat": 19.24624994987596, "lon": 130.77988253613935, "alt_km": 691.0154438233312, "timestamp": "2025-12-19T04:59:47.957493+00:00", "meta": {"OBJECT_NAME": "ARIRANG-3 (KOMPSAT-3)", "OBJECT_ID": "2012-025B", "EPOCH": "2025-12-18T23:20:10.213152", "MEAN_MOTION": 14.61720675, "ECCENTRICITY": 0.00049754, "INCLINATION": 98.3331, "RA_OF_ASC_NODE": 307.6089, "ARG_OF_PERICENTER": 317.2302, "MEAN_ANOMALY": 42.8511, "EPHEMERIS_TYPE": 0, "CLASSIFICATION_TYPE": "U", "NORAD_CAT_ID": 38338, "ELEMENT_SET_NO": 999, "REV_AT_EPOCH": 72501, "BSTAR": 9.5815224e-05, "MEAN_MOTION_DOT": 4.29e-06, "MEAN_MOTION_DDOT": 0}, "tle": {"line1": "1 38338U 12025B   25352.97234043  .00000429  00000+0  95815-4 0  9990", "line2": "2 38338  98.3331 307.6089 0004975 317.2302  42.8511 14.61720675725015"}}, "geometry": {"type": "Point", "coordinates": [130.77988253613935, 19.24624994987596]}}, {"type": "Feature", "properties": {"norad_id": 38709, "name": "EXACTVIEW-1 (ADS-1B)", "group": "resource", "lat": 22.323349178528517, "lon": 98.01798895561507, "alt_km": 803.3975676764176, "timestamp": "2025-12-19T04:59:47.957504+00:00", "meta": {"OBJECT_NAME": "EXACTVIEW-1 (ADS-1B)", "OBJECT_ID": "2012-039C", "EPOCH": "2025-12-18T22:08:59.931168", "MEAN_MOTION": 14.24910425, "ECCENTRICITY": 0.00103551, "INCLINATION": 98.9638, "RA_OF_ASC_NODE": 101.4427, "ARG_OF_PERICENTER": 335.9691, "MEAN_ANOMALY": 24.1003, "EPHEMERIS_TYPE": 0, "CLASSIFICATION_TYPE": "U", "NORAD_CAT_ID": 38709, "ELEMENT_SET_NO": 999, "REV_AT_EPOCH": 69703, "BSTAR": 6.5007668e-05, "MEAN_MOTION_DOT": 1.05e-06, "MEAN_MOTION_DDOT": 0}, "tle": {"line1": "1 38709U 12039C   25352.92291587  .00000105  00000+0  65008-4 0  9990", "line2": "2 38709  98.9638 101.4427 0010355 335.9691  24.1003 14.24910425697038"}}, "geometry": {"type": "Point", "coordinates": [98.01798895561507, 22.323349178528517]}}, {"type": "Feature", "properties": {"norad_id": 38755, "name": "SPOT 6", "group": "resource", "lat": 65.07288325925036, "lon": -104.14978722647984, "alt_km": 690.7860652588861, "timestamp": "2025-12-19T04:59:47.957514+00:00", "meta": {"OBJECT_NAME": "SPOT 6", "OBJECT_ID": "2012-047A", "EPOCH": "2025-12-18T23:32:18.331872", "MEAN_MOTION": 14.58537489, "ECCENTRICITY": 0.00013301, "INCLINATION": 98.1572, "RA_OF_ASC_NODE": 57.6509, "ARG_OF_PERICENTER": 77.9867, "MEAN_ANOMALY": 282.1481, "EPHEMERIS_TYPE": 0, "CLASSIFICATION_TYPE": "U", "NORAD_CAT_ID": 38755, "ELEMENT_SET_NO": 999, "REV_AT_EPOCH": 70678, "BSTAR": 6.3113664e-05, "MEAN_MOTION_DOT": 2.48e-06, "MEAN_MOTION_DDOT": 0}, "tle": {"line1": "1 38755U 12047A   25352.98076773  .00000248  00000+0  63114-4 0  9998", "line2": "2 38755  98.1572  57.6509 0001330  77.9867 282.1481 14.58537489706783"}}, "geometry": {"type": "Point", "coordinates": [-104.14978722647984, 65.07288325925036]}}]}